ONEWEB-0033             
1 45142U 20008M   24215.57687635  .00000434  00000+0  12080-2 0  9990
2 45142  87.8963 172.2785 0001862  85.3115 274.8225 13.10370792218689
ONEWEB-0035             
1 45143U 20008N   24215.83746207 -.00000563  00000+0 -16480-2 0  9994
2 45143  87.8973 172.2107 0001936  80.9304 279.2043 13.10372899219332
ONEWEB-0036             
1 45144U 20008P   24215.82753439 -.00000552  00000+0 -16172-2 0  9995
2 45144  87.8966 172.1681 0002350  82.9886 277.1508 13.10366909219731
ONEWEB-0038             
1 45145U 20008Q   24215.53779681  .00000237  00000+0  63388-3 0  9991
2 45145  87.8994 157.1502 0002224  57.9934 302.1410 13.11416716220729
ONEWEB-0039             
1 45146U 20008R   24215.88562217  .00000193  00000+0  51780-3 0  9999
2 45146  87.8965 172.1748 0002496  77.7709 282.3698 13.10369957219456
ONEWEB-0040             
1 45147U 20008S   24215.57355749  .00000532  00000+0  14873-2 0  9994
2 45147  87.8972 172.2409 0002102  79.3223 280.8141 13.10370663218331
ONEWEB-0043             
1 45149U 20008U   24215.57521770  .00000504  00000+0  14084-2 0  9998
2 45149  87.8967 172.2449 0002556  77.6066 282.5347 13.10370360218656
ONEWEB-0044             
1 45150U 20008V   24215.60344792 -.00000766  00000+0 -22303-2 0  9996
2 45150  87.8971 172.2342 0002355  78.6675 281.4717 13.10376423218957
